LEMUR-2-STARLIGHT       
1 66783U 25276DY  26197.13678419  .00003695  00000+0  30612-3 0  9993
2 66783  97.5236 266.7857 0014682  44.7641 315.4765 14.99362068 34536
LEMUR-2-TARTIFLETTE     
1 66784U 25276DZ  26197.13519478  .00003383  00000+0  28086-3 0  9999
2 66784  97.5234 266.7927 0013932  52.8232 307.4262 14.99346228 34539
LEMUR-2-VUKASIN         
1 66785U 25276EA  26197.17148192  .00002241  00000+0  18216-3 0  9991
2 66785  97.5222 267.1884 0002893  51.9297 308.2188 15.00551009 34498
LEMUR-2-HOTSPUR-TOM     
1 66786U 25276EB  26197.12965845  .00002886  00000+0  24089-3 0  9999
2 66786  97.5217 266.7611 0013744  44.3359 315.8962 14.99246630 34467
LEMUR-2-MYRA            
1 66787U 25276EC  26197.13667227  .00003164  00000+0  25422-3 0  9996
2 66787  97.5220 267.0739 0018687  51.4695 308.8201 15.00595023 34554
LEMUR-2 FIKRETDENGIZ    
1 67363U 26004A   26196.97442088  .00001654  00000+0  18371-3 0  9991
2 67363  97.8025 195.0951 0010146  53.5985 306.6166 14.88519982 27568
TWILIGHT-1 OBJECT B     
1 67364U 26004B   26196.94468941  .00000880  00000+0  10233-3 0  9994
2 67364  97.8075 195.0660 0009685  43.7671 316.4311 14.87794860 27560
LEMUR-2-MARIO-SOUSA     
1 67365U 26004C   26196.95417427  .00002372  00000+0  25951-3 0  9990
2 67365  97.7998 195.0701 0009802  54.9216 305.2919 14.88731264 27571
LEMUR-2-SONNENBLUME     
1 67367U 26004E   26196.95716686  .00001373  00000+0  15379-3 0  9994
2 67367  97.8001 195.0453 0009352  55.9946 304.2157 14.88455287 27575
LEMUR-2-WOBLER          
1 67368U 26004F   26196.94633084  .00002174  00000+0  23857-3 0  9994
2 67368  97.8049 195.1864 0009423  48.0590 312.1428 14.88700946 27576
LEMUR-2-GRAM-E-SUE      
1 67370U 26004H   26197.00573550  .00001218  00000+0  13657-3 0  9991
2 67370  97.7987 195.1096 0008551  58.8174 301.3880 14.88591442 27586
LEMUR-2-KATIE           
1 67387U 26004AA  26196.76036386  .00002563  00000+0  26980-3 0  9999
2 67387  97.8043 195.4216 0003470  32.8536 327.2897 14.90254887 27569
LEMUR-2-HCS-BAZUS       
1 67388U 26004AB  26196.89300270  .00001478  00000+0  15797-3 0  9998
2 67388  97.8038 195.5306 0002924  31.8037 328.3357 14.90263817 27581
